CCSDS_OMM_VERS = 2.0
CREATION_DATE  = 
ORIGINATOR     = 

OBJECT_NAME    = ALOS-2
OBJECT_ID      = 2014-029A
CENTER_NAME    = EARTH
REF_FRAME      = TEME
TIME_SYSTEM    = UTC
MEAN_ELEMENT_THEORY = SGP/SGP4

EPOCH          = 2026-04-03T03:13:18.249600
MEAN_MOTION    = 14.79449708
ECCENTRICITY   = .00018735
INCLINATION    = 97.9197
RA_OF_ASC_NODE = 191.3762
ARG_OF_PERICENTER = 101.9153
MEAN_ANOMALY   = 258.2269

EPHEMERIS_TYPE = 0
CLASSIFICATION_TYPE = U
NORAD_CAT_ID   = 39766
ELEMENT_SET_NO = 999
REV_AT_EPOCH   = 64048
BSTAR          = .36025367E-4
MEAN_MOTION_DOT = .218E-5
MEAN_MOTION_DDOT = 0

CCSDS_OMM_VERS = 2.0
CREATION_DATE  = 
ORIGINATOR     = 

OBJECT_NAME    = YAOGAN-29
OBJECT_ID      = 2015-069A
CENTER_NAME    = EARTH
REF_FRAME      = TEME
TIME_SYSTEM    = UTC
MEAN_ELEMENT_THEORY = SGP/SGP4

EPOCH          = 2026-04-03T14:58:33.803040
MEAN_MOTION    = 14.83023356
ECCENTRICITY   = .00000598
INCLINATION    = 98.0102
RA_OF_ASC_NODE = 122.1165
ARG_OF_PERICENTER = 219.0123
MEAN_ANOMALY   = 141.1086

EPHEMERIS_TYPE = 0
CLASSIFICATION_TYPE = U
NORAD_CAT_ID   = 41038
ELEMENT_SET_NO = 999
REV_AT_EPOCH   = 55957
BSTAR          = .10348679E-3
MEAN_MOTION_DOT = .787E-5
MEAN_MOTION_DDOT = 0

CCSDS_OMM_VERS = 2.0
CREATION_DATE  = 
ORIGINATOR     = 

OBJECT_NAME    = ASTRO-H (HITOMI)
OBJECT_ID      = 2016-012A
CENTER_NAME    = EARTH
REF_FRAME      = TEME
TIME_SYSTEM    = UTC
MEAN_ELEMENT_THEORY = SGP/SGP4

EPOCH          = 2026-04-03T14:52:10.371072
MEAN_MOTION    = 15.10171847
ECCENTRICITY   = .00096791
INCLINATION    = 30.9990
RA_OF_ASC_NODE = 195.6484
ARG_OF_PERICENTER = 222.5414
MEAN_ANOMALY   = 137.4474

EPHEMERIS_TYPE = 0
CLASSIFICATION_TYPE = U
NORAD_CAT_ID   = 41337
ELEMENT_SET_NO = 999
REV_AT_EPOCH   = 55600
BSTAR          = .28817004E-3
MEAN_MOTION_DOT = .4921E-4
MEAN_MOTION_DDOT = 0

CCSDS_OMM_VERS = 2.0
CREATION_DATE  = 
ORIGINATOR     = 

OBJECT_NAME    = HXMT (HUIYAN)
OBJECT_ID      = 2017-034A
CENTER_NAME    = EARTH
REF_FRAME      = TEME
TIME_SYSTEM    = UTC
MEAN_ELEMENT_THEORY = SGP/SGP4

EPOCH          = 2026-04-03T12:35:14.742816
MEAN_MOTION    = 15.17795467
ECCENTRICITY   = .00310737
INCLINATION    = 43.0137
RA_OF_ASC_NODE = 238.5666
ARG_OF_PERICENTER = 29.7119
MEAN_ANOMALY   = 330.5486

EPHEMERIS_TYPE = 0
CLASSIFICATION_TYPE = U
NORAD_CAT_ID   = 42758
ELEMENT_SET_NO = 999
REV_AT_EPOCH   = 48631
BSTAR          = .53518684E-3
MEAN_MOTION_DOT = .10928E-3
MEAN_MOTION_DDOT = 0

CCSDS_OMM_VERS = 2.0
CREATION_DATE  = 
ORIGINATOR     = 

OBJECT_NAME    = SAOCOM 1A
OBJECT_ID      = 2018-076A
CENTER_NAME    = EARTH
REF_FRAME      = TEME
TIME_SYSTEM    = UTC
MEAN_ELEMENT_THEORY = SGP/SGP4

EPOCH          = 2026-04-03T14:30:19.211328
MEAN_MOTION    = 14.82146898
ECCENTRICITY   = .00013728
INCLINATION    = 97.8895
RA_OF_ASC_NODE = 281.4256
ARG_OF_PERICENTER = 88.7088
MEAN_ANOMALY   = 271.4282

EPHEMERIS_TYPE = 0
CLASSIFICATION_TYPE = U
NORAD_CAT_ID   = 43641
ELEMENT_SET_NO = 999
REV_AT_EPOCH   = 40505
BSTAR          = -.35180094E-4
MEAN_MOTION_DOT = -.332E-5
MEAN_MOTION_DDOT = 0

CCSDS_OMM_VERS = 2.0
CREATION_DATE  = 
ORIGINATOR     = 

OBJECT_NAME    = H-2A R/B
OBJECT_ID      = 2018-084L
CENTER_NAME    = EARTH
REF_FRAME      = TEME
TIME_SYSTEM    = UTC
MEAN_ELEMENT_THEORY = SGP/SGP4

EPOCH          = 2026-04-03T14:06:57.848256
MEAN_MOTION    = 15.42467000
ECCENTRICITY   = .00233299
INCLINATION    = 98.8684
RA_OF_ASC_NODE = 316.3160
ARG_OF_PERICENTER = 297.6019
MEAN_ANOMALY   = 62.2855

EPHEMERIS_TYPE = 0
CLASSIFICATION_TYPE = U
NORAD_CAT_ID   = 43682
ELEMENT_SET_NO = 999
REV_AT_EPOCH   = 40961
BSTAR          = .73796426E-3
MEAN_MOTION_DOT = .32248E-3
MEAN_MOTION_DDOT = 0

CCSDS_OMM_VERS = 2.0
CREATION_DATE  = 
ORIGINATOR     = 

OBJECT_NAME    = SAOCOM 1B
OBJECT_ID      = 2020-059A
CENTER_NAME    = EARTH
REF_FRAME      = TEME
TIME_SYSTEM    = UTC
MEAN_ELEMENT_THEORY = SGP/SGP4

EPOCH          = 2026-04-03T13:38:06.177984
MEAN_MOTION    = 14.82150109
ECCENTRICITY   = .00014596
INCLINATION    = 97.8883
RA_OF_ASC_NODE = 280.4866
ARG_OF_PERICENTER = 84.7321
MEAN_ANOMALY   = 275.4058

EPHEMERIS_TYPE = 0
CLASSIFICATION_TYPE = U
NORAD_CAT_ID   = 46265
ELEMENT_SET_NO = 999
REV_AT_EPOCH   = 30243
BSTAR          = .11124318E-3
MEAN_MOTION_DOT = .833E-5
MEAN_MOTION_DDOT = 0

CCSDS_OMM_VERS = 2.0
CREATION_DATE  = 
ORIGINATOR     = 

OBJECT_NAME    = CSS (TIANHE)
OBJECT_ID      = 2021-035A
CENTER_NAME    = EARTH
REF_FRAME      = TEME
TIME_SYSTEM    = UTC
MEAN_ELEMENT_THEORY = SGP/SGP4

EPOCH          = 2026-04-03T15:53:28.326624
MEAN_MOTION    = 15.61949710
ECCENTRICITY   = .00037754
INCLINATION    = 41.4676
RA_OF_ASC_NODE = 56.0662
ARG_OF_PERICENTER = 116.3854
MEAN_ANOMALY   = 243.7373

EPHEMERIS_TYPE = 0
CLASSIFICATION_TYPE = U
NORAD_CAT_ID   = 48274
ELEMENT_SET_NO = 999
REV_AT_EPOCH   = 28151
BSTAR          = .34552756E-3
MEAN_MOTION_DOT = .30768E-3
MEAN_MOTION_DDOT = 0

CCSDS_OMM_VERS = 2.0
CREATION_DATE  = 
ORIGINATOR     = 

OBJECT_NAME    = COSMOS 2550
OBJECT_ID      = 2021-056A
CENTER_NAME    = EARTH
REF_FRAME      = TEME
TIME_SYSTEM    = UTC
MEAN_ELEMENT_THEORY = SGP/SGP4

EPOCH          = 2026-04-01T11:17:21.715008
MEAN_MOTION    = 15.33839536
ECCENTRICITY   = .00083284
INCLINATION    = 67.1445
RA_OF_ASC_NODE = 331.9738
ARG_OF_PERICENTER = 269.3207
MEAN_ANOMALY   = 90.6993

EPHEMERIS_TYPE = 0
CLASSIFICATION_TYPE = U
NORAD_CAT_ID   = 48865
ELEMENT_SET_NO = 999
REV_AT_EPOCH   = 26695
BSTAR          = .17705072E-3
MEAN_MOTION_DOT = .5639E-4
MEAN_MOTION_DDOT = 0

CCSDS_OMM_VERS = 2.0
CREATION_DATE  = 
ORIGINATOR     = 

OBJECT_NAME    = CZ-2C R/B
OBJECT_ID      = 2022-058K
CENTER_NAME    = EARTH
REF_FRAME      = TEME
TIME_SYSTEM    = UTC
MEAN_ELEMENT_THEORY = SGP/SGP4

EPOCH          = 2026-04-03T15:15:24.255360
MEAN_MOTION    = 15.56231657
ECCENTRICITY   = .00411612
INCLINATION    = 50.1875
RA_OF_ASC_NODE = 189.7869
ARG_OF_PERICENTER = 307.8980
MEAN_ANOMALY   = 51.8272

EPHEMERIS_TYPE = 0
CLASSIFICATION_TYPE = U
NORAD_CAT_ID   = 52794
ELEMENT_SET_NO = 999
REV_AT_EPOCH   = 21401
BSTAR          = .72854591E-3
MEAN_MOTION_DOT = .54065E-3
MEAN_MOTION_DDOT = 0

CCSDS_OMM_VERS = 2.0
CREATION_DATE  = 
ORIGINATOR     = 

OBJECT_NAME    = CZ-2C R/B
OBJECT_ID      = 2022-132E
CENTER_NAME    = EARTH
REF_FRAME      = TEME
TIME_SYSTEM    = UTC
MEAN_ELEMENT_THEORY = SGP/SGP4

EPOCH          = 2026-04-03T14:18:39.930336
MEAN_MOTION    = 15.64298198
ECCENTRICITY   = .0016131
INCLINATION    = 97.2950
RA_OF_ASC_NODE = 97.7134
ARG_OF_PERICENTER = 7.8841
MEAN_ANOMALY   = 352.2668

EPHEMERIS_TYPE = 0
CLASSIFICATION_TYPE = U
NORAD_CAT_ID   = 54039
ELEMENT_SET_NO = 999
REV_AT_EPOCH   = 19426
BSTAR          = .67454206E-3
MEAN_MOTION_DOT = .65029E-3
MEAN_MOTION_DDOT = 0

CCSDS_OMM_VERS = 2.0
CREATION_DATE  = 
ORIGINATOR     = 

OBJECT_NAME    = GSLV R/B
OBJECT_ID      = 2022-138AN
CENTER_NAME    = EARTH
REF_FRAME      = TEME
TIME_SYSTEM    = UTC
MEAN_ELEMENT_THEORY = SGP/SGP4

EPOCH          = 2026-04-03T14:09:12.866400
MEAN_MOTION    = 14.96940187
ECCENTRICITY   = .00237647
INCLINATION    = 87.3851
RA_OF_ASC_NODE = 158.0252
ARG_OF_PERICENTER = 64.7580
MEAN_ANOMALY   = 295.6111

EPHEMERIS_TYPE = 0
CLASSIFICATION_TYPE = U
NORAD_CAT_ID   = 54149
ELEMENT_SET_NO = 999
REV_AT_EPOCH   = 18765
BSTAR          = .46896522E-3
MEAN_MOTION_DOT = .5444E-4
MEAN_MOTION_DDOT = 0

